P/2010 D2 (WISE),e,57.0838,319.8929,120.1269,6.715148,0.0566397,0.45074910,215.8940,07/27.0/2020,2000,g 16.0,4.0
# From MPC 75009
P/2010 E2 (Jarnac),e,15.4124,177.8254,8.3747,8.637153,0.0388283,0.72049164,146.2220,07/27.0/2020,2000,g 14.0,4.0
# From MPC 72851
P/2010 H2 (Vales),e,14.2725,64.2126,128.2652,3.835240,0.1312246,0.19554240,137.9802,07/27.0/2020,2000,g  6.0,4.0
# From MPC 70361
P/2010 H3 (SOHO),e,23.1384,77.2003,26.0435,3.062048,0.1839442,0.98549722,0.0000,02/07.9428/2021,2000,g 20.0,2.0
# From MPC 73463
P/2010 H4 (Scotti),e,2.3194,44.7518,179.5724,6.588084,0.0582861,0.26786753,214.9744,07/27.0/2020,2000,g 10.5,4.0
# From MPC 74637
P/2010 H5 (Scotti),e,14.0700,24.8105,175.3335,7.156458,0.0514822,0.15399938,193.4808,07/27.0/2020,2000,g 13.0,2.0
# From MPC 98558
P/2010 J3 (McMillan),e,13.2910,106.4045,157.5743,8.968350,0.0366974,0.72747611,132.8005,07/27.0/2020,2000,g 11.0,4.0
# From MPC 84315
P/2010 JC81 (WISE),e,38.6973,30.8389,12.4520,8.112278,0.0426570,0.77648312,144.4924,07/27.0/2020,2000,g  9.0,4.0
# From MPC 74248
P/2010 T2 (PANSTARRS),e,7.9322,59.1651,353.9136,5.503882,0.0763309,0.32164134,257.7052,07/27.0/2020,2000,g 11.5,4.0
# From MPC 98558
P/2010 TO20 (LINEAR-Grauer),e,2.4794,43.2999,266.7580,5.828024,0.0700523,0.05427722,300.7558,07/27.0/2020,2000,g  9.0,4.0
# From MPC 82316
P/2010 U1 (Boattini),e,8.2139,280.7209,85.8698,6.513466,0.0592906,0.24772689,227.6720,07/27.0/2020,2000,g  9.5,4.0
# From MPC119994
C/2010 U3 (Boattini),e,55.5173,43.0415,88.0762,2565,0.0000076,0.99670701,0.0000,02/26.0898/2019,2000,g  1.0,4.0
# From MPC 79021
P/2010 UH55 (Spacewatch),e,8.0500,233.0279,225.1853,6.649769,0.0574770,0.56364731,194.7847,07/27.0/2020,2000,g 11.0,4.0
# From MPC 75009
P/2010 WK (LINEAR),e,11.4001,11.3125,41.0025,5.759395,0.0713081,0.68966024,256.1121,07/27.0/2020,2000,g 14.5,2.0
# From MPC 82317
P/2011 A2 (Scotti),e,4.4753,54.6745,94.5432,3.104919,0.1801476,0.49937978,271.2369,07/27.0/2020,2000,g 16.5,4.0
# From MPC 84021
P/2011 C2 (Gibbs),e,10.8856,12.1222,161.0706,7.414237,0.0488207,0.26910449,152.6321,07/27.0/2020,2000,g  9.0,4.0
# From MPC 79866
P/2011 FR143 (Lemmon),e,15.9914,190.9493,350.1546,6.855440,0.0549100,0.45124906,188.4477,07/27.0/2020,2000,g 14.0,2.0
# From MPC 82317
P/2011 JB15 (Spacewatch-Boattini),e,19.1461,153.6032,110.9577,7.352410,0.0494378,0.31832298,153.5869,07/27.0/2020,2000,g  9.0,4.0
# From MPEC 2020-AA5
C/2011 KP36 (Spacewatch),e,18.9833,173.3103,180.6266,38.80326,0.0040776,0.87426622,6.2044,07/27.0/2020,2000,g  4.5,4.0
# From MPC 87913
P/2011 N1 (ASH),e,35.7077,77.6072,330.3441,6.250889,0.0630654,0.54345849,188.6467,07/27.0/2020,2000,g 11.5,4.0
# From MPC 75714
P/2011 NO1 (Elenin),e,15.2491,295.7881,263.8425,5.522487,0.0759455,0.77502756,263.7136,07/27.0/2020,2000,g 15.0,4.0
# From MPC 82318
P/2011 P1 (McNaught),e,5.6567,4.2422,348.8740,7.470261,0.0482726,0.32669615,176.8118,07/27.0/2020,2000,g  9.0,4.0
# From MPC 77806
P/2011 Q3 (McNaught),e,6.0562,32.0243,310.9661,4.970614,0.0889383,0.53245301,292.9800,07/27.0/2020,2000,g 13.5,4.0
# From MPEC 2020-N31
P/2011 R3 (Novichonok-Gerke),e,19.2521,189.6847,225.0830,4.779702,0.0943198,0.27166577,285.1417,07/27.0/2020,2000,g 11.0,4.0
# From MPC 98558
P/2011 S1 (Gibbs),e,2.6835,218.9138,192.5489,8.589631,0.0391510,0.19999769,85.2032,07/27.0/2020,2000,g  8.0,4.0
# From MPEC 2020-N31
P/2011 U2 (Bressi),e,9.9301,263.3932,154.1696,4.901658,0.0908217,0.13398839,259.7421,07/27.0/2020,2000,g 10.0,4.0
# From MPC 79022
P/2011 UA134 (Spacewatch-PANSTARRS),e,10.4449,40.4346,32.4695,5.602694,0.0743205,0.62929536,236.0243,07/27.0/2020,2000,g 17.5,4.0
# From MPC 77406
P/2011 V1 (Boattini),e,7.3777,46.8562,269.2274,3.854284,0.1302532,0.55063359,86.4759,07/27.0/2020,2000,g 15.5,4.0
# From MPC 82718
P/2011 W1 (PANSTARRS),e,3.7186,161.7900,282.7260,4.659981,0.0979778,0.28694975,305.0603,07/27.0/2020,2000,g 11.5,4.0
# From MPC 79342
P/2011 Y2 (Boattini),e,6.3713,309.3695,131.9434,6.239692,0.0632353,0.70918507,193.7519,07/27.0/2020,2000,g 15.0,4.0
# From MPC 94669
P/2012 B1 (PANSTARRS),e,7.6167,36.1960,162.5981,6.526842,0.0591084,0.41001675,151.4832,07/27.0/2020,2000,g  9.0,4.0
# From MPC 78590
P/2012 C3 (PANSTARRS),e,9.0920,135.3677,344.9542,9.748681,0.0323806,0.63011148,359.9758,10/06.0/2011,2000,g 13.0,4.0
# From MPC 84931
P/2012 F2 (PANSTARRS),e,14.7287,227.0654,33.2380,6.327787,0.0619193,0.54293149,164.8026,07/27.0/2020,2000,g 12.0,4.0
# From MPC 79344
P/2012 G1 (PANSTARRS),e,11.6925,282.5440,286.1149,4.172871,0.1156250,0.38072240,359.9500,06/01.0/2012,2000,g 15.0,4.0
# From MPC 80898
P/2012 K3 (Gibbs),e,13.1946,125.8086,172.1313,3.624332,0.1428440,0.42350077,49.2126,07/27.0/2020,2000,g 15.0,4.0
# From MPC112389
C/2012 LP26 (Palomar),h,08/18.8951/2015,25.3432,153.9263,145.3554,1.003632,6.545037,2000,6.5,4.0
# From MPC 88326
P/2012 NJ (La Sagra),e,84.6515,315.5520,338.3189,8.457818,0.0400697,0.84744328,118.8540,07/27.0/2020,2000,g 14.5,4.0
# From MPC 81470
P/2012 O1 (McNaught),e,7.4333,91.9846,238.2090,3.539799,0.1479913,0.59452363,75.8607,07/27.0/2020,2000,g 17.5,4.0
# From MPC 80899
P/2012 O2 (McNaught),e,24.4866,120.6783,183.3894,3.622444,0.1429557,0.53283361,64.0285,07/27.0/2020,2000,g 17.0,4.0
# From MPC 82720
P/2012 O3 (McNaught),e,16.6133,336.4077,344.6965,4.575603,0.1007005,0.64689325,292.3520,07/27.0/2020,2000,g 16.5,4.0
# From MPC 82720
P/2012 S2 (La Sagra),e,8.6874,51.1928,312.5075,4.410364,0.1064124,0.69113892,310.8559,07/27.0/2020,2000,g 17.0,4.0
# From MPEC 2020-N31
P/2012 SB6 (Lemmon),e,10.9287,8.2110,14.3911,3.825487,0.1317267,0.40481369,4.9718,07/27.0/2020,2000,g 14.0,4.0
# From MPEC 2020-N31
C/2014 B1 (Schwartz),e,28.4030,161.4089,345.8065,17371,0.0000004,0.99944994,0.0000,09/09.4853/2017,2000,g  4.0,4.0
# From MPEC 2020-N31
C/2014 Y1 (PANSTARRS),h,01/16.4349/2016,14.9124,19.5460,182.3381,1.001563,2.252643,2000,9.5,4.0
# From MPEC 2020-N31
C/2015 XY1 (Lemmon),h,04/28.1674/2018,148.8557,281.6254,196.2543,1.003401,7.924882,2000,5.5,4.0
# From MPEC 2020-N31
C/2016 N6 (PANSTARRS),e,105.8409,298.9907,162.7519,1658,0.0000146,0.99839159,0.0000,07/18.0849/2018,2000,g  7.0,4.0
# From MPEC 2020-N31
C/2016 Q2 (PANSTARRS),e,109.3889,322.2982,84.5048,28264,0.0000002,0.99974942,0.0000,05/11.5921/2021,2000,g  6.0,4.0
# From MPEC 2020-N31
C/2016 R2 (PANSTARRS),e,58.2265,80.5679,33.1770,545.0374,0.0000775,0.99522431,0.0000,05/09.2703/2018,2000,g  7.0,4.0
# From MPEC 2020-N31
C/2017 B3 (LINEAR),h,02/02.6358/2019,54.1730,2.1796,284.7845,1.001870,3.922234,2000,6.0,4.0
# From MPEC 2020-N31
C/2017 E3 (PANSTARRS),h,06/08.1113/2017,70.6311,220.7361,334.5210,1.006886,5.937874,2000,6.5,4.0
# From MPEC 2020-N31
C/2017 K2 (PANSTARRS),h,12/19.9246/2022,87.5440,88.2629,236.1670,1.000437,1.799064,2000,1.5,4.0
# From MPEC 2020-N31
C/2017 K4 (ATLAS),e,16.6807,298.8677,15.2169,28.47230,0.0064874,0.90692422,6.0371,07/27.0/2020,2000,g 10.0,4.0
# From MPEC 2020-N31
C/2017 M4 (ATLAS),h,01/17.8956/2019,105.6455,65.8678,167.5765,1.001181,3.252158,2000,6.0,4.0
# From MPEC 2020-N31
C/2017 T2 (PANSTARRS),e,57.2307,64.3775,92.9954,3652,0.0000045,0.99955770,0.0000,05/04.9538/2020,2000,g  5.0,4.0
# From MPEC 2020-N31
C/2017 U7 (PANSTARRS),h,09/13.8175/2019,142.6061,276.2434,326.2612,1.002463,6.420881,2000,8.3,2.0
# From MPEC 2020-N31
C/2017 Y2 (PANSTARRS),h,11/04.5328/2020,128.4241,65.9831,147.8535,1.000883,4.632129,2000,15.0,4.0
# From MPEC 2020-N31
C/2018 A6 (Gibbs),e,76.9607,340.3820,264.5528,15.34354,0.0163989,0.80328412,6.2099,07/27.0/2020,2000,g  9.0,4.0
# From MPEC 2020-N31
C/2018 C2 (Lemmon),h,06/01.9145/2018,34.4584,91.1396,134.1164,1.000945,1.957365,2000,13.0,4.0
# From MPEC 2020-N31
C/2018 F4 (PANSTARRS),h,12/04.1381/2019,78.0970,26.5106,263.2217,1.001527,3.440058,2000,11.9,2.0
# From MPEC 2020-N31
C/2018 KJ3 (Lemmon),e,136.7092,91.5953,217.6451,770.6722,0.0000461,0.99529110,0.0000,09/09.5976/2019,2000,g 12.2,2.0
# From MPEC 2020-N31
C/2018 N2 (ASASSN),h,11/10.9600/2019,77.5283,25.2531,24.3977,1.000095,3.124649,2000,6.0,4.0
# From MPEC 2020-N31
C/2018 U1 (Lemmon),h,11/02.7960/2021,108.3015,75.4769,180.4175,1.000705,4.994013,2000,5.0,4.0
# From MPEC 2020-N31
A/2018 V3,e,164.9779,308.6570,3.4993,120.6979,0.0007433,0.98890079,0.0000,09/08.6772/2019,2000,g 15.7,2.0
# From MPEC 2020-N31
C/2018 W2 (Africano),h,09/05.7064/2019,116.6169,181.8537,157.9750,1.000566,1.454760,2000,9.5,4.0
# From MPEC 2020-N31
C/2019 A5 (PANSTARRS),e,67.5541,146.6235,356.0060,21.61032,0.0098110,0.70737681,4.0615,07/27.0/2020,2000,g  9.5,4.0
# From MPEC 2020-N31
C/2019 A9 (PANSTARRS),e,84.3000,278.3777,237.9239,39.88070,0.0039135,0.96416852,1.4336,07/27.0/2020,2000,g 15.0,4.0
# From MPEC 2020-N31
C/2019 B3 (PANSTARRS),h,01/19.8439/2021,66.5348,358.4217,263.9009,1.002821,6.822996,2000,5.5,4.0
# From MPEC 2020-N31
C/2019 C1 (ATLAS),e,36.0193,212.3934,319.1896,794.7452,0.0000440,0.99171893,0.0000,05/05.6826/2020,2000,g 10.0,4.0
# From MPEC 2020-N31
C/2019 F1 (ATLAS-Africano),h,06/22.7732/2021,54.1753,38.7261,251.1089,1.003466,3.596051,2000,5.5,4.0
# From MPEC 2020-N31
C/2019 K6 (PANSTARRS),e,132.3742,42.9404,187.6203,1550,0.0000162,0.99746473,0.0000,05/20.1987/2020,2000,g 11.5,4.0
# From MPEC 2020-N31
C/2019 K7 (Smith),h,06/16.9308/2020,103.5390,307.9266,27.2971,1.000926,4.475028,2000,6.0,4.0
# From MPC 82320
P/2012 T2 (PANSTARRS),e,12.5553,73.7329,310.4319,5.738535,0.0716972,0.16056675,190.4296,07/27.0/2020,2000,g 10.0,4.0
# From MPC 80900
P/2012 T3 (PANSTARRS),e,9.5689,114.4084,195.4334,6.152683,0.0645814,0.61717508,194.3414,07/27.0/2020,2000,g 15.0,4.0
# From MPC 87914
P/2012 TK8 (Tenagra),e,6.3405,288.9703,127.8476,4.130219,0.1174206,0.27434798,306.5294,07/27.0/2020,2000,g 13.0,4.0
# From MPC 82720
P/2012 U2 (PANSTARRS),e,10.7477,185.2685,228.3381,7.143782,0.0516193,0.49762103,145.4809,07/27.0/2020,2000,g 12.5,4.0
# From MPC 84024
P/2012 US27 (Siding Spring),e,39.3263,49.1696,0.8250,5.166214,0.0839355,0.64732457,230.0035,07/27.0/2020,2000,g 13.5,4.0
# From MPC 82721
